CCSDS_OMM_VERS,COMMENT,CREATION_DATE,ORIGINATOR,OBJECT_NAME,OBJECT_ID,CENTER_NAME,REF_FRAME,TIME_SYSTEM,MEAN_ELEMENT_THEORY,EPOCH,MEAN_MOTION,ECCENTRICITY,INCLINATION,RA_OF_ASC_NODE,ARG_OF_PERICENTER,MEAN_ANOMALY,EPHEMERIS_TYPE,CLASSIFICATION_TYPE,NORAD_CAT_ID,ELEMENT_SET_NO,REV_AT_EPOCH,BSTAR,MEAN_MOTION_DOT,MEAN_MOTION_DDOT,SEMIMAJOR_AXIS,PERIOD,APOAPSIS,PERIAPSIS,OBJECT_TYPE,RCS_SIZE,COUNTRY_CODE,LAUNCH_DATE,SITE,DECAY_DATE,FILE,GP_ID,TLE_LINE0,TLE_LINE1,TLE_LINE2
"2.0","GENERATED VIA SPACE-TRACK.ORG API","2019-10-05T13:30:12","18 SPCS","AEOLUS","2018-066A","EARTH","TEME","UTC","SGP4","2019-10-05T12:47:32.874432","15.86653323","0.00040270","96.7187","283.7569","112.5646","7.5361","0","U","43600","999","6478","0.00012790000000","0.00032236","0.0000000000000","6689.810","90.757","314.369","308.981","PAYLOAD","LARGE","ESA","2018-08-22","FRGUI","","2624094","140676164","0 AEOLUS","1 43600U 18066A   19278.53301938  .00032236  00000-0  12790-3 0  9991","2 43600  96.7187 283.7569 0004027 112.5646   7.5361 15.86653323 64780"
"2.0","GENERATED VIA SPACE-TRACK.ORG API","2019-10-06T03:49:36","18 SPCS","STARLINK-44","2019-029AC","EARTH","TEME","UTC","SGP4","2019-10-05T13:12:03.782592","15.05475356","0.00008700","53.0004","288.6168","101.8565","258.2521","0","U","44261","999","1947","0.00007801100000","0.00000855","0.0000000000000","6928.183","95.650","550.651","549.446","PAYLOAD","LARGE","US","2019-05-24","AFETR","","2624561","140724968","0 STARLINK-44","1 44261U 19029AC  19278.55004378 +.00000855 +00000-0 +78011-4 0  9996","2 44261 053.0004 288.6168 0000870 101.8565 258.2521 15.05475356019478"
"2.0","GENERATED VIA SPACE-TRACK.ORG API","2019-10-06T22:20:17","18 SPCS","STARLINK-44","2019-029AC","EARTH","TEME","UTC","SGP4","2019-10-06T13:06:01.596384","15.05477030","0.00008680","53.0004","284.1470","96.9451","263.1636","0","U","44261","999","2056","0.00006295100000","0.00000636","0.0000000000000","6928.178","95.650","550.645","549.442","PAYLOAD","LARGE","US","2019-05-24","AFETR","","2625105","140775364","0 STARLINK-44","1 44261U 19029AC  19279.54585181  .00000636  00000-0  62951-4 0  9995","2 44261  53.0004 284.1470 0000868  96.9451 263.1636 15.05477030 20565"
"2.0","GENERATED VIA SPACE-TRACK.ORG API","2019-10-07T03:03:00","18 SPCS","AEOLUS","2018-066A","EARTH","TEME","UTC","SGP4","2019-10-06T14:36:09.512352","15.86706600","0.00038350","96.7186","284.8163","106.1395","32.5989","0","U","43600","999","6495","0.00010837000000","0.00027347","0.0000000000000","6689.660","90.754","314.091","308.960","PAYLOAD","LARGE","ESA","2018-08-22","FRGUI","","2625304","140798224","0 AEOLUS","1 43600U 18066A   19279.60844343 +.00027347 +00000-0 +10837-3 0  9999","2 43600 096.7186 284.8163 0003835 106.1395 032.5989 15.86706600064957"
"2.0","GENERATED VIA SPACE-TRACK.ORG API","2019-10-07T06:50:13","18 SPCS","AEOLUS","2018-066A","EARTH","TEME","UTC","SGP4","2019-10-07T00:52:27.029280","15.86731613","0.00038400","96.7194","285.2377","105.1918","316.5766","0","U","43600","999","6502","0.00010975000000","0.00027731","0.0000000000000","6689.590","90.752","314.024","308.886","PAYLOAD","LARGE","ESA","2018-08-22","FRGUI","","2625532","140804289","0 AEOLUS","1 43600U 18066A   19280.03642395  .00027731  00000-0  10975-3 0  9991","2 43600  96.7194 285.2377 0003840 105.1918 316.5766 15.86731613 65023"
"2.0","GENERATED VIA SPACE-TRACK.ORG API","2019-10-07T14:20:17","18 SPCS","STARLINK-44","2019-029AC","EARTH","TEME","UTC","SGP4","2019-10-07T11:24:22.627296","15.05509756","0.00009670","53.0004","279.9752","94.7479","265.3619","0","U","44261","999","2070","0.00006988800000","0.00000738","0.0000000000000","6928.078","95.648","550.613","549.273","PAYLOAD","LARGE","US","2019-05-24","AFETR","","2625579","140804980","0 STARLINK-44","1 44261U 19029AC  19280.47526189  .00000738  00000-0  69888-4 0  9991","2 44261  53.0004 279.9752 0000967  94.7479 265.3619 15.05509756 20708"
"2.0","GENERATED VIA SPACE-TRACK.ORG API","2019-10-07T14:40:16","18 SPCS","AEOLUS","2018-066A","EARTH","TEME","UTC","SGP4","2019-10-07T11:44:28.101696","15.86754734","0.00037340","96.7196","285.6836","103.8925","22.5575","0","U","43600","999","6509","0.00010758000000","0.00027207","0.0000000000000","6689.525","90.751","313.888","308.892","PAYLOAD","LARGE","ESA","2018-08-22","FRGUI","","2625744","140809034","0 AEOLUS","1 43600U 18066A   19280.48921414  .00027207  00000-0  10758-3 0  9999","2 43600  96.7196 285.6836 0003734 103.8925  22.5575 15.86754734 65092"
"2.0","GENERATED VIA SPACE-TRACK.ORG API","2019-10-07T22:40:16","18 SPCS","AEOLUS","2018-066A","EARTH","TEME","UTC","SGP4","2019-10-07T17:29:47.984640","15.86760281","0.00037130","96.7210","285.9195","102.1426","313.2375","0","U","43600","999","6513","0.00010073000000","0.00025468","0.0000000000000","6689.509","90.750","313.858","308.890","PAYLOAD","LARGE","ESA","2018-08-22","FRGUI","","2625990","140832706","0 AEOLUS","1 43600U 18066A   19280.72902760  .00025468  00000-0  10073-3 0  9996","2 43600  96.7210 285.9195 0003713 102.1426 313.2375 15.86760281 65132"
"2.0","GENERATED VIA SPACE-TRACK.ORG API","2019-10-08T03:54:30","18 SPCS","STARLINK-44","2019-029AC","EARTH","TEME","UTC","SGP4","2019-10-07T20:57:56.991456","15.05509702","0.00009730","53.0004","278.1872","92.1765","267.9334","0","U","44261","999","1982","0.00002836400000","0.00000134","0.0000000000000","6928.078","95.648","550.617","549.269","PAYLOAD","LARGE","US","2019-05-24","AFETR","","2626010","140851604","0 STARLINK-44","1 44261U 19029AC  19280.87357629 +.00000134 +00000-0 +28364-4 0  9990","2 44261 053.0004 278.1872 0000973 092.1765 267.9334 15.05509702019823"
"2.0","GENERATED VIA SPACE-TRACK.ORG API","2019-10-08T06:50:16","18 SPCS","AEOLUS","2018-066A","EARTH","TEME","UTC","SGP4","2019-10-08T02:30:57.909888","15.86777452","0.00039050","96.7237","286.2908","108.4632","292.2059","0","U","43600","999","6519","0.00009809100000","0.00024819","0.0000000000000","6689.461","90.749","313.938","308.714","PAYLOAD","LARGE","ESA","2018-08-22","FRGUI","","2626220","140856988","0 AEOLUS","1 43600U 18066A   19281.10483692  .00024819  00000-0  98091-4 0  9993","2 43600  96.7237 286.2908 0003905 108.4632 292.2059 15.86777452 65197"
"2.0","GENERATED VIA SPACE-TRACK.ORG API","2019-10-08T14:50:20","18 SPCS","AEOLUS","2018-066A","EARTH","TEME","UTC","SGP4","2019-10-08T11:57:47.608416","15.86794638","0.00038580","96.7239","286.6780","109.6696","18.0391","0","U","43600","999","6525","0.00009516800000","0.00024093","0.0000000000000","6689.413","90.748","313.859","308.697","PAYLOAD","LARGE","ESA","2018-08-22","FRGUI","","2626428","140861282","0 AEOLUS","1 43600U 18066A   19281.49846769  .00024093  00000-0  95168-4 0  9999","2 43600  96.7239 286.6780 0003858 109.6696  18.0391 15.86794638 65256"
"2.0","GENERATED VIA SPACE-TRACK.ORG API","2019-10-08T22:30:17","18 SPCS","AEOLUS","2018-066A","EARTH","TEME","UTC","SGP4","2019-10-08T15:03:43.865856","15.86732863","0.00025910","96.7220","286.8018","114.7336","29.8966","0","U","43600","999","6527","0.00001792800000","0.00004403","0.0000000000000","6689.586","90.752","313.185","309.718","PAYLOAD","LARGE","ESA","2018-08-22","FRGUI","","2626634","140884261","0 AEOLUS","1 43600U 18066A   19281.62759104  .00004403  00000-0  17928-4 0  9991","2 43600  96.7220 286.8018 0002591 114.7336  29.8966 15.86732863 65275"
"2.0","GENERATED VIA SPACE-TRACK.ORG API","2019-10-09T04:38:40","18 SPCS","STARLINK-44","2019-029AC","EARTH","TEME","UTC","SGP4","2019-10-08T20:51:52.863840","15.05510782","0.00010040","53.0004","273.7174","88.0044","272.1059","0","U","44261","999","1997","0.00002714600000","0.00000116","0.0000000000000","6928.075","95.648","550.635","549.244","PAYLOAD","LARGE","US","2019-05-24","AFETR","","2626653","140903164","0 STARLINK-44","1 44261U 19029AC  19281.86936185 +.00000116 +00000-0 +27146-4 0  9997","2 44261 053.0004 273.7174 0001004 088.0044 272.1059 15.05510782019977"
"2.0","GENERATED VIA SPACE-TRACK.ORG API","2019-10-09T06:50:15","18 SPCS","AEOLUS","2018-066A","EARTH","TEME","UTC","SGP4","2019-10-09T02:44:01.114656","15.86725960","0.00026800","96.7220","287.2833","107.8018","292.8076","0","U","43600","999","6535","0.00000712520000","0.00001667","0.0000000000000","6689.606","90.752","313.264","309.678","PAYLOAD","LARGE","ESA","2018-08-22","FRGUI","","2626867","140927737","0 AEOLUS","1 43600U 18066A   19282.11390179  .00001667  00000-0  71252-5 0  9999","2 43600  96.7220 287.2833 0002680 107.8018 292.8076 15.86725960 65357"
"2.0","GENERATED VIA SPACE-TRACK.ORG API","2019-10-09T06:20:17","18 SPCS","STARLINK-44","2019-029AC","EARTH","TEME","UTC","SGP4","2019-10-09T03:14:15.695232","15.05512501","0.00010200","53.0005","272.5254","88.6635","271.4470","0","U","44261","999","2095","0.00006282000000","0.00000635","0.0000000000000","6928.069","95.648","550.641","549.228","PAYLOAD","LARGE","US","2019-05-24","AFETR","","2626686","140923379","0 STARLINK-44","1 44261U 19029AC  19282.13490388  .00000635  00000-0  62820-4 0  9992","2 44261  53.0005 272.5254 0001020  88.6635 271.4470 15.05512501 20954"
"2.0","GENERATED VIA SPACE-TRACK.ORG API","2019-10-09T14:40:18","18 SPCS","AEOLUS","2018-066A","EARTH","TEME","UTC","SGP4","2019-10-09T12:18:26.455680","15.86729451","0.00030470","96.7233","287.6791","113.7730","43.9147","0","U","43600","999","6541","0.00000808160000","0.00001910","0.0000000000000","6689.596","90.752","313.499","309.423","PAYLOAD","LARGE","ESA","2018-08-22","FRGUI","","2627085","140932723","0 AEOLUS","1 43600U 18066A   19282.51280620  .00001910  00000-0  80816-5 0  9999","2 43600  96.7233 287.6791 0003047 113.7730  43.9147 15.86729451 65413"
